NORAD_CAT_ID,OBJECT_NAME,OBJECT_TYPE,EPOCH,MEAN_MOTION,ECCENTRICITY,INCLINATION,RA_OF_ASC_NODE,ARG_OF_PERICENTER,MEAN_ANOMALY,BSTAR,MEAN_MOTION_DOT,MEAN_MOTION_DDOT,TLE_LINE0,TLE_LINE1,TLE_LINE2,SEMIMAJOR_AXIS,PERIOD,APOGEE,PERIGEE,DECAYED
53283.0,STARLINK-4175,PAYLOAD,2023-11-25 07:35:47,15.08857235,0.0001478,53.2164,334.2592,79.2894,280.8264,0.00056491,8.718e-05,0.0,0 STARLINK-4175,1 53283U 22086AT  23329.31652104  .00008718  00000-0  56491-3 0  9992,2 53283  53.2164 334.2592 0001478  79.2894 280.8264 15.08857235 75085,6917.828,95.436,540.715,538.67,0.0
53283.0,STARLINK-4175,PAYLOAD,2023-11-26 05:51:10,15.08855037,0.0001746,53.218,330.0988,98.4953,261.6237,0.00016397,2.324e-05,0.0,0 STARLINK-4175,1 53283U 22086AT  23330.24387609  .00002324  00000-0  16397-3 0  9999,2 53283  53.2180 330.0988 0001746  98.4953 261.6237 15.08855037 75055,6917.834,95.437,540.907,538.492,0.0
53283.0,STARLINK-4175,PAYLOAD,2023-11-27 04:06:36,15.08823386,0.0001776,53.2181,325.9312,100.7242,259.395,-0.00031894,-5.358e-05,0.0,0 STARLINK-4175,1 53283U 22086AT  23331.17125241 -.00005358  00000-0 -31894-3 0  9995,2 53283  53.2181 325.9312 0001776 100.7242 259.3950 15.08823386 75194,6917.931,95.439,541.025,538.568,0.0
53283.0,STARLINK-4175,PAYLOAD,2023-11-27 08:52:46,15.08818605,0.0001529,53.2171,325.0372,101.6982,258.4182,-0.0004172,-6.918e-05,0.0,0 STARLINK-4175,1 53283U 22086AT  23331.36997956 -.00006918  00000-0 -41720-3 0  9998,2 53283  53.2171 325.0372 0001529 101.6982 258.4182 15.08818605 75394,6917.946,95.439,540.869,538.753,0.0
53283.0,STARLINK-4175,PAYLOAD,2023-11-28 08:43:32,15.08852479,0.0001876,53.2192,320.5776,81.4076,278.7129,0.00038619,5.866e-05,0.0,0 STARLINK-4175,1 53283U 22086AT  23332.36357079  .00005866  00000-0  38619-3 0  9997,2 53283  53.2192 320.5776 0001876  81.4076 278.7129 15.08852479 75370,6917.842,95.437,541.005,538.409,0.0
53283.0,STARLINK-4175,PAYLOAD,2023-11-28 23:02:01,15.08836239,0.0001539,53.2178,317.9028,79.3067,280.8098,0.00044728,6.837e-05,0.0,0 STARLINK-4175,1 53283U 22086AT  23332.95974332  .00006837  00000-0  44728-3 0  9996,2 53283  53.2178 317.9028 0001539  79.3067 280.8098 15.08836239 75630,6917.892,95.438,540.822,538.692,0.0
53283.0,STARLINK-4175,PAYLOAD,2023-11-29 03:48:10,15.08844935,0.0001949,53.2178,317.0124,94.388,265.7335,0.00049496,7.599e-05,0.0,0 STARLINK-4175,1 53283U 22086AT  23333.15845842  .00007599  00000-0  49496-3 0  9995,2 53283  53.2178 317.0124 0001949  94.3880 265.7335 15.08844935 75495,6917.865,95.437,541.079,538.382,0.0
53283.0,STARLINK-4175,PAYLOAD,2023-11-29 05:23:33,15.08847818,0.0002112,53.2181,316.7154,87.26,272.8634,0.00052425,8.067e-05,0.0,0 STARLINK-4175,1 53283U 22086AT  23333.22469808  .00008067  00000-0  52425-3 0  9994,2 53283  53.2181 316.7154 0002112  87.2600 272.8634 15.08847818 75676,6917.856,95.437,541.183,538.26,0.0
53283.0,STARLINK-4175,PAYLOAD,2023-11-30 08:25:06,15.08852138,0.0001887,53.2178,311.6549,94.1081,266.0127,-1.9121e-05,-5.93e-06,0.0,0 STARLINK-4175,1 53283U 22086AT  23334.35077017 -.00000593  00000-0 -19121-4 0  9991,2 53283  53.2178 311.6549 0001887  94.1081 266.0127 15.08852138 75675,6917.843,95.437,541.014,538.403,0.0
53283.0,STARLINK-4175,PAYLOAD,2023-12-01 08:15:53,15.08848295,0.0002088,53.2183,307.1916,111.5386,248.5829,-6.2317e-06,-3.87e-06,0.0,0 STARLINK-4175,1 53283U 22086AT  23335.34437096 -.00000387  00000-0 -62317-5 0  9995,2 53283  53.2183 307.1916 0002088 111.5386 248.5829 15.08848295 75825,6917.855,95.437,541.164,538.276,0.0
53283.0,STARLINK-4175,PAYLOAD,2023-12-02 04:55:53,15.0887502,0.0002016,53.2185,303.3259,99.9018,260.2202,0.00059533,9.208e-05,0.0,0 STARLINK-4175,1 53283U 22086AT  23336.20547487  .00009208  00000-0  59533-3 0  9990,2 53283  53.2185 303.3259 0002016  99.9018 260.2202 15.08875020 75953,6917.773,95.435,541.033,538.244,0.0
53283.0,STARLINK-4175,PAYLOAD,2023-12-03 03:11:18,15.0883112,0.0001771,53.2178,299.1665,100.7839,259.3353,-0.00019157,-3.335e-05,0.0,0 STARLINK-4175,1 53283U 22086AT  23337.13285489 -.00003335  00000-0 -19157-3 0  9999,2 53283  53.2178 299.1665 0001771 100.7839 259.3353 15.08831120 76092,6917.908,95.438,540.998,538.547,0.0
53283.0,STARLINK-4175,PAYLOAD,2023-12-03 06:22:05,15.08822779,0.0001738,53.2177,298.5722,85.1123,275.0068,-0.00029278,-4.942e-05,0.0,0 STARLINK-4175,1 53283U 22086AT  23337.26534033 -.00004942  00000-0 -29278-3 0  9995,2 53283  53.2177 298.5722 0001738  85.1123 275.0068 15.08822779 76114,6917.933,95.439,541.0,538.596,0.0
53283.0,STARLINK-4175,PAYLOAD,2023-12-04 03:02:05,15.08841279,0.0001673,53.2169,294.708,89.5697,270.5487,-0.00016478,-2.91e-05,0.0,0 STARLINK-4175,1 53283U 22086AT  23338.12645662 -.00002910  00000-0 -16478-3 0  9993,2 53283  53.2169 294.7080 0001673  89.5697 270.5487 15.08841279 76247,6917.876,95.437,540.899,538.584,0.0
53283.0,STARLINK-4175,PAYLOAD,2023-12-04 06:12:51,15.08848002,0.0001737,53.2174,294.1122,96.355,263.764,-1.1018e-05,-4.64e-06,0.0,0 STARLINK-4175,1 53283U 22086AT  23338.25893315 -.00000464  00000-0 -11018-4 0  9995,2 53283  53.2174 294.1122 0001737  96.3550 263.7640 15.08848002 76436,6917.856,95.437,540.923,538.519,0.0
53283.0,STARLINK-4175,PAYLOAD,2023-12-05 02:52:53,15.08843522,0.0001859,53.2172,290.2452,85.1575,274.9629,0.00049956,7.672e-05,0.0,0 STARLINK-4175,1 53283U 22086AT  23339.12006073  .00007672  00000-0  49956-3 0  9996,2 53283  53.2172 290.2452 0001859  85.1575 274.9629 15.08843522 76393,6917.87,95.437,541.021,538.449,0.0
53283.0,STARLINK-4175,PAYLOAD,2023-12-05 04:28:16,15.08850522,0.0001987,53.2178,289.9527,82.4195,277.7023,0.0005044,7.751e-05,0.0,0 STARLINK-4175,1 53283U 22086AT  23339.18629919  .00007751  00000-0  50440-3 0  9990,2 53283  53.2178 289.9527 0001987  82.4195 277.7023 15.08850522 76574,6917.848,95.437,541.088,538.339,0.0
53283.0,STARLINK-4175,PAYLOAD,2023-12-05 20:22:07,15.08842267,0.0001928,53.2163,286.9774,85.0247,275.0965,0.00015614,2.198e-05,0.0,0 STARLINK-4175,1 53283U 22086AT  23339.84870164  .00002198  00000-0  15614-3 0  9997,2 53283  53.2163 286.9774 0001928  85.0247 275.0965 15.08842267 76507,6917.873,95.437,541.072,538.405,0.0
53283.0,STARLINK-4175,PAYLOAD,2023-12-06 05:54:26,15.08846546,0.0001985,53.2176,285.1937,86.6292,273.4927,0.00012607,1.719e-05,0.0,0 STARLINK-4175,1 53283U 22086AT  23340.24613922  .00001719  00000-0  12607-3 0  9997,2 53283  53.2176 285.1937 0001985  86.6292 273.4927 15.08846546 76732,6917.86,95.437,541.099,538.352,0.0
53283.0,STARLINK-4175,PAYLOAD,2023-12-07 02:34:27,15.08839211,0.0002088,53.2176,281.3276,85.27,274.8531,1.5293e-05,-4.5e-07,0.0,0 STARLINK-4175,1 53283U 22086AT  23341.10726371 -.00000045  00000-0  15293-4 0  9993,2 53283  53.2176 281.3276 0002088  85.2700 274.8531 15.08839211 76692,6917.883,95.438,541.192,538.303,0.0
53283.0,STARLINK-4175,PAYLOAD,2023-12-07 05:45:13,15.08839635,0.0002056,53.2171,280.7323,92.4143,267.7084,6.4209e-05,7.34e-06,0.0,0 STARLINK-4175,1 53283U 22086AT  23341.23974331  .00000734  00000-0  64209-4 0  9993,2 53283  53.2171 280.7323 0002056  92.4143 267.7084 15.08839635 76884,6917.882,95.438,541.169,538.324,0.0
53283.0,STARLINK-4175,PAYLOAD,2023-12-08 02:25:14,15.08846521,0.0001928,53.2189,276.8639,105.8504,254.2701,0.00012046,1.63e-05,0.0,0 STARLINK-4175,1 53283U 22086AT  23342.10085964  .00001630  00000-0  12046-3 0  9992,2 53283  53.2189 276.8639 0001928 105.8504 254.2701 15.08846521 77011,6917.86,95.437,541.059,538.392,0.0
53283.0,STARLINK-4175,PAYLOAD,2023-12-09 02:16:01,15.08843799,0.0001811,53.2172,272.4056,86.1244,273.9956,0.00010646,1.407e-05,0.0,0 STARLINK-4175,1 53283U 22086AT  23343.09446175  .00001407  00000-0  10646-3 0  9992,2 53283  53.2172 272.4056 0001811  86.1244 273.9956 15.08843799 76991,6917.869,95.437,540.987,538.481,0.0
53283.0,STARLINK-4175,PAYLOAD,2023-12-09 05:26:47,15.08844158,0.0001792,53.2173,271.8108,89.7976,270.3221,0.00010098,1.32e-05,0.0,0 STARLINK-4175,1 53283U 22086AT  23343.22694090  .00001320  00000-0  10098-3 0  9993,2 53283  53.2173 271.8108 0001792  89.7976 270.3221 15.08844158 77180,6917.868,95.437,540.972,538.493,0.0
53283.0,STARLINK-4175,PAYLOAD,2023-12-10 22:46:49,15.08839398,0.0001927,53.2178,264.0786,99.4011,260.7199,3.5774e-06,-2.31e-06,0.0,0 STARLINK-4175,1 53283U 22086AT  23344.94918146 -.00000231  00000-0  35774-5 0  9995,2 53283  53.2178 264.0786 0001927  99.4011 260.7199 15.08839398 77445,6917.882,95.438,541.08,538.414,0.0
53283.0,STARLINK-4175,PAYLOAD,2023-12-11 00:22:12,15.08840038,0.0001854,53.2178,263.7824,101.1392,258.9809,3.8745e-05,3.29e-06,0.0,0 STARLINK-4175,1 53283U 22086AT  23345.01542316  .00000329  00000-0  38745-4 0  9993,2 53283  53.2178 263.7824 0001854 101.1392 258.9809 15.08840038 77288,6917.88,95.438,541.028,538.463,0.0
53283.0,STARLINK-4175,PAYLOAD,2023-12-11 22:37:36,15.08837505,0.0001883,53.2182,259.6182,94.7086,265.4121,1.3911e-05,-6.7e-07,0.0,0 STARLINK-4175,1 53283U 22086AT  23345.94278704 -.00000067  00000-0  13911-4 0  9990,2 53283  53.2182 259.6182 0001883  94.7086 265.4121 15.08837505 77592,6917.888,95.438,541.056,538.45,0.0
53283.0,STARLINK-4175,PAYLOAD,2023-12-12 01:48:23,15.08835232,0.0001697,53.2166,259.0233,85.4849,274.6337,6.6638e-05,7.73e-06,0.0,0 STARLINK-4175,1 53283U 22086AT  23346.07526724  .00000773  00000-0  66638-4 0  9990,2 53283  53.2166 259.0233 0001697  85.4849 274.6337 15.08835232 77442,6917.895,95.438,540.934,538.586,0.0
53283.0,STARLINK-4175,PAYLOAD,2023-12-12 22:28:23,15.08838956,0.0001661,53.2165,255.1623,92.1734,267.9448,8.176e-05,1.013e-05,0.0,0 STARLINK-4175,1 53283U 22086AT  23346.93638757  .00001013  00000-0  81760-4 0  9996,2 53283  53.2165 255.1623 0001661  92.1734 267.9448 15.08838956 77747,6917.884,95.438,540.898,538.6,0.0
53283.0,STARLINK-4175,PAYLOAD,2023-12-13 01:39:09,15.08843084,0.0001712,53.2168,254.5668,89.6056,270.5133,0.00011467,1.538e-05,0.0,0 STARLINK-4175,1 53283U 22086AT  23347.06886454  .00001538  00000-0  11467-3 0  9998,2 53283  53.2168 254.5668 0001712  89.6056 270.5133 15.08843084 77599,6917.871,95.437,540.92,538.552,0.0
